FENGYUN 1C DEB          
1 29987U 99025LM  17345.70208169  .00001021  00000-0  72635-3 0  9993
2 29987  98.9766 250.2820 0097497  69.1989 350.4583 13.97461957554092
